IRIDIUM 36              
1 24967U 97056C   24327.81649610  .00000995  00000+0  32778-3 0  9990
2 24967  86.3959 259.6413 0002252  78.8143 281.3308 14.37239921422578
IRIDIUM 39              
1 25042U 97069D   24328.05698823  .00001724  00000+0  45238-3 0  9992
2 25042  86.3880 299.5175 0015676 276.6270  83.3149 14.48636860419379
IRIDIUM 38              
1 25043U 97069E   24328.32883977  .00001136  00000+0  37139-3 0  9997
2 25043  86.3933 319.7905 0003991  73.1740 286.9895 14.37721391416631
IRIDIUM 42              
1 25077U 97077A   24327.80542721  .00000937  00000+0  31602-3 0  9991
2 25077  86.3942 325.9271 0002971  85.9291 274.2246 14.35985761411571
IRIDIUM 44              
1 25078U 97077B   24327.82886368  .00001283  00000+0  40257-3 0  9993
2 25078  86.3923 308.3835 0002671  45.0608 315.0807 14.39851766414030
IRIDIUM 45              
1 25104U 97082A   24327.56559049  .00022673  00000+0  10406-2 0  9991
2 25104  86.3639 147.4080 0141043  20.8159 339.8742 15.11742612420711
IRIDIUM 24              
1 25105U 97082B   24328.34293477  .00000992  00000+0  29818-3 0  9997
2 25105  86.3930 167.5455 0012878  45.1803 315.0441 14.41679152413808
IRIDIUM 51              
1 25262U 98018A   24327.84068096  .00036596  00000+0  13017-2 0  9994
2 25262  86.3918 156.5805 0119083 314.5783  44.5787 15.22253290415452
